[{"OBJECT_NAME":"STARLINK-5569","OBJECT_ID":"2023-013BA","EPOCH":"2026-03-09T00:36:29.578176","MEAN_MOTION":15.02537671,"ECCENTRICITY":0.00013622,"INCLINATION":43.0042,"RA_OF_ASC_NODE":316.5729,"ARG_OF_PERICENTER":264.2114,"MEAN_ANOMALY":95.8573,"EPHEMERIS_TYPE":0,"CLASSIFICATION_TYPE":"U","NORAD_CAT_ID":55379,"ELEMENT_SET_NO":999,"REV_AT_EPOCH":17146,"BSTAR":-3.791612e-6,"MEAN_MOTION_DOT":-2.55e-6,"MEAN_MOTION_DDOT":0},{"OBJECT_NAME":"CZ-4C DEB","OBJECT_ID":"2018-031G","EPOCH":"2026-03-09T17:35:43.516320","MEAN_MOTION":15.0216174,"ECCENTRICITY":0.00078465,"INCLINATION":97.7704,"RA_OF_ASC_NODE":152.3432,"ARG_OF_PERICENTER":232.9325,"MEAN_ANOMALY":127.1182,"EPHEMERIS_TYPE":0,"CLASSIFICATION_TYPE":"U","NORAD_CAT_ID":43265,"ELEMENT_SET_NO":999,"REV_AT_EPOCH":42950,"BSTAR":0.00075767681,"MEAN_MOTION_DOT":9.924e-5,"MEAN_MOTION_DDOT":0}]
